UNKNOWN                 
1 87725U 81053    22339.13218140  .00006005  00000+0  18873-2 0  9994
2 87725  82.8949 123.5610 0028839 352.9676   7.1107 14.40126237472916
UNKNOWN                 
1 87727U 92093    22338.16671723  .00062780  00000+0  50324-2 0  9993
2 87727  70.9754 244.2910 0013918 274.6488  85.3089 14.99696653746275
UNKNOWN                 
1 87730U          22339.27505028  .00000079  00000+0  68137-4 0  9997
2 87730  82.9436 330.3928 0029515 196.1854 163.8361 13.74225025433765
UNKNOWN                 
1 87737U 99025    22339.43637003  .00000006  00000+0  52273-4 0  9990
2 87737  99.5349 210.2368 0133454 177.5264 182.6572 13.72056050452547
UNKNOWN                 
1 87764U 76126    22339.26074373  .00004653  00000+0  93853-3 0  9993
2 87764  65.6741 252.1527 0486325 267.7344 172.5197 14.07551773462406
UNKNOWN                 
1 87771U 75052    22339.38629642  .00000069  00000+0  28204-3 0  9991
2 87771 100.6988 136.4790 0119831 342.7168  16.9883 13.19104768389597
UNKNOWN                 
1 87782U 73086    22339.49712384  .00002331  00000+0  87766-2 0  9997
2 87782 102.4144  57.0678 0066109 273.6769  85.6764 12.92087099425054
UNKNOWN                 
1 87843U 70025    22339.29252862  .00001747  00000+0  43845-2 0  9993
2 87843  99.6709 174.0340 0240648  57.6094 304.8060 13.10992981419284
UNKNOWN                 
1 87845U          22338.20529511  .00000441  00000+0  92796-3 0  9999
2 87845  98.8452 139.7573 0585833 268.4407  84.9549 12.85088970423149
UNKNOWN                 
1 87878U          22339.55848173  .00001546  00000+0  61282-3 0  9995
2 87878  99.2087  16.3419 0041489 235.8260 123.8984 14.29983488453116
UNKNOWN                 
1 87883U 99025    22313.43428092  .00001698  00000+0  62432-3 0  9995
2 87883  99.2030 214.6920 0296330 309.9411  47.6064 14.12595846412743
UNKNOWN                 
1 87884U 99025    22339.32942931  .00000039  00000+0  45772-4 0  9992
2 87884  98.6289 112.5151 0155739 293.7586  64.7315 14.04594685463392
UNKNOWN                 
1 87898U 99025    22338.08896352  .00006372  00000+0  21736-2 0  9992
2 87898  98.9056 210.3330 0128143 252.8863 105.8252 14.32236448864642
UNKNOWN                 
1 87934U          22326.95324166  .00000069  00000+0  58648-4 0  9991
2 87934  82.9390  44.1257 0029490 256.5674 229.1821 13.72842951873641
UNKNOWN                 
1 87942U          22338.24022844  .00007519  00000+0  70622-3 0  9995
2 87942  99.0963 334.3754 0132016  55.9154 317.7612 14.87871273556055
UNKNOWN                 
1 87972U 99025    22329.03831400  .00011396  00000+0  35297-2 0  9992
2 87972  98.8043 259.8213 0156946  39.5114 321.7390 14.34473504416248
UNKNOWN                 
1 87991U 77065    22338.92344062  .00002820  00000+0  57949-2 0  9994
2 87991  28.6154 197.0376 0907893  99.8584 270.5519 12.30206849386735
UNKNOWN                 
1 89003U          22339.39334913  .00000188  00000+0  75204-4 0  9992
2 89003  74.0472 237.1043 0016771 210.9400 149.0766 14.34859240473225
UNKNOWN                 
1 89005U          22337.45100866  .00001073  00000+0  29413-3 0  9991
2 89005  97.9549 234.8554 0218708 161.4848 199.4459 14.35803750374973
UNKNOWN                 
1 89029U          22337.35043318  .00001894  00000+0  25639-3 0  9991
2 89029  98.1832 198.3490 0029636 329.2239  30.7233 14.79946158 52550
UNKNOWN                 
1 89037U          22338.33438730  .00002601  00000+0  15059-2 0  9996
2 89037  98.4471 286.3014 0139972  61.4333 300.0841 14.04849254366874
UNKNOWN                 
1 89048U          22338.51779663  .00053443  00000+0  67095-2 0  9998
2 89048  99.0454 254.0425 0017181  43.2573 316.9982 14.81792744921609
UNKNOWN                 
1 89067U          22339.30270533  .00015271  00000+0  44536-3 0  9992
2 89067  80.9853  72.0859 0540192 105.1555 261.0028 14.53809040422066
UNKNOWN                 
1 89074U          22337.63977524  .00002940  00000+0  33837-2 0  9998
2 89074 100.2966  20.8018 0050339 292.7321 221.1947 13.69807733509679
UNKNOWN                 
1 89101U          22336.14548706  .00000039  00000+0  24077-3 0  9994
2 89101 100.3273 298.8119 0148063  59.1156 302.4416 13.03678272419377
UNKNOWN                 
1 89123U          22339.26261816  .00004958  00000+0  22745-2 0  9991
2 89123  99.0674  84.9387 0064685 167.3654 192.9161 14.20639478370351
UNKNOWN                 
1 89132U          22337.75307764  .00001513  00000+0  13623-2 0  9995
2 89132  63.4405 243.4996 3052479 320.5523  20.8057  8.75326432227759
UNKNOWN                 
1 89135U          22337.71942411  .00003963  00000+0  18612-2 0  9992
2 89135  71.0626 128.2324 0131365 129.8069 231.4708 14.16168954465348
UNKNOWN                 
1 89142U          22339.20299449  .00134823  00000+0  11912+0 0  9995
2 89142  64.8632 257.0726 2988854  65.7836 322.5137  8.86527192 15325
UNKNOWN                 
1 89146U          22338.53624148  .00001368  00000+0  34232-3 0  9993
2 89146  98.1981 267.9386 0115834 232.5052 126.5567 14.49121798468251
UNKNOWN                 
1 89161U          22339.03665596  .00003992  00000+0  52988-3 0  9991
2 89161  97.7215 358.5500 0127869 154.9265 205.8228 14.74752429383623
UNKNOWN                 
1 89172U 81053    22338.43486724  .00003044  00000+0  72352-3 0  9992
2 89172  82.0761 148.1584 0408144 344.9411  13.9894 14.13275849621839
UNKNOWN                 
1 89177U          22334.86305230  .00000068  00000+0  57447-4 0  9997
2 89177  82.9225  10.3425 0032067 346.7593  13.2717 13.73451338910876
UNKNOWN                 
1 89183U          22339.25691845  .00000307  00000+0  31835-3 0  9990
2 89183  99.2126 261.3901 0132275 208.0318 151.3668 13.79515323454714
UNKNOWN                 
1 89184U          22339.38019235  .00004426  00000+0  13631-2 0  9991
2 89184  98.4660 174.4913 0019441 293.3237  66.5906 14.41845883331490
UNKNOWN                 
1 89195U          22338.15596838  .00002200  00000+0  94194-3 0  9998
2 89195  98.7604  45.4402 0031771 207.1424 152.8095 14.25650599369864
UNKNOWN                 
1 89206U          22339.52123226  .00003897  00000+0  15827-2 0  9998
2 89206  98.6936   3.9595 0029758 153.5761 206.6945 14.27931051328297
UNKNOWN                 
1 89213U          22338.53584117  .00000324  00000+0  24244-3 0  9992
2 89213  98.8777 248.5170 0232118 266.8718  90.5861 13.89433825299211
UNKNOWN                 
1 89218U          22337.98596625  .00000969  00000+0  92685-3 0  9991
2 89218 100.3830 168.5693 0109717 339.9671  19.7188 13.80861240982338
UNKNOWN                 
1 89251U          22338.86537717  .00006267  00000+0  49158-2 0  9996
2 89251  62.5241 300.7309 3046535   3.2375 358.4011  8.79240298273783
UNKNOWN                 
1 89255U          22337.70986040  .00001787  00000+0  23420-2 0  9995
2 89255  98.6598 242.4422 0365054  18.2877 343.0993 13.38145326347205
UNKNOWN                 
1 89261U          22338.53619893  .00000456  00000+0  15930-3 0  9993
2 89261  98.1897   7.0515 0012331 262.1817  97.7973 14.39581518374769
UNKNOWN                 
1 89281U          22338.66553130  .00007961  00000+0  20705-2 0  9993
2 89281  99.3282 120.5130 0018293 213.1868 159.8875 14.49822354474636
UNKNOWN                 
1 89304U          22339.31946565  .00003499  00000+0  13949-1 0  9993
2 89304  84.8786  10.7864 2726284 277.3510  63.2839  8.88639555339877
UNKNOWN                 
1 89314U          22338.10214978  .00002060  00000+0  58808-2 0  9993
2 89314  19.2884 300.3953 7119544 103.1689 338.7374  2.40625755 61111
UNKNOWN                 
1 89327U          22337.75689753  .00001305  00000+0  10968-2 0  9990
2 89327  82.5504 144.4533 0010147 343.8543  16.2294 13.87300526321232
UNKNOWN                 
1 89347U          22339.26819600  .00132851  00000+0  10905-1 0  9997
2 89347  86.2480  88.8845 0037410 321.0302  38.8233 14.98013310336153
UNKNOWN                 
1 89349U          22339.31247243  .00000455  00000+0  15799-2 0  9994
2 89349  90.2556 342.2863 0029981 283.6058  76.1723 12.95642669335839
UNKNOWN                 
1 89379U          22339.56692342  .00000981  00000+0  16001-2 0  9999
2 89379 100.5537 267.9249 0056115 301.3743  58.1906 13.50193534431244
UNKNOWN                 
1 89381U          22338.31708575  .00336504  00000+0  13121-1 0  9992
2 89381  98.7222 170.2165 0031964 307.0787  52.7525 15.24007830314800
UNKNOWN                 
1 89389U          22338.60055302  .00008368  00000+0  11026-2 0  9992
2 89389  74.0466  97.2282 0074315  63.3107 297.5652 14.78301571379592
UNKNOWN                 
1 89391U          22338.84449634  .00024265  00000+0  18836-2 0  9996
2 89391  97.4605 117.2441 0175390 162.0725 198.6788 14.89897004262020
UNKNOWN                 
1 89395U          22335.56093851 -.00000149  00000+0 -12164-2 0  9997
2 89395 102.3113 354.2687 0225786 212.4914 301.5568 12.01220140460321
UNKNOWN                 
1 89400U          22335.64171864 -.00000016  00000+0  00000+0 0  9999
2 89400  63.4492  79.4311 1772835 116.8353 262.4441  8.12980771314291
UNKNOWN                 
1 89403U          22339.27908759 -.00000056  00000+0 -21700-3 0  9995
2 89403  90.2558 340.6718 0030256 271.2826 100.8027 12.97111197334690
UNKNOWN                 
1 89453U          22339.40718694  .00025771  00000+0  13088-2 0  9990
2 89453  97.3094 135.5653 0109604 291.8969  67.0637 15.11692333341848
UNKNOWN                 
1 89460U          22339.33681908  .00000950  00000+0  19361-2 0  9999
2 89460 100.2697 120.5358 0048809  42.4937 317.9949 13.35881325285697
UNKNOWN                 
1 89484U          22339.48879196  .00012257  00000+0  72720-1 0  9999
2 89484  84.8778  70.0380 2645989 330.1091  17.1465  8.87420824256588
UNKNOWN                 
1 89490U          22339.36826454  .00004805  00000+0  21422-2 0  9996
2 89490  98.4100 298.7608 0125179 232.0590 126.9222 14.19118467323105
UNKNOWN                 
1 89492U          22337.44638728  .00000447  00000+0  31979-3 0  9997
2 89492  82.5285 236.9364 0024618 273.1723  86.6627 13.95181099412999
